NORAD_CAT_ID,OBJECT_NAME,OBJECT_TYPE,EPOCH,MEAN_MOTION,ECCENTRICITY,INCLINATION,RA_OF_ASC_NODE,ARG_OF_PERICENTER,MEAN_ANOMALY,BSTAR,MEAN_MOTION_DOT,MEAN_MOTION_DDOT,TLE_LINE0,TLE_LINE1,TLE_LINE2,SEMIMAJOR_AXIS,PERIOD,APOGEE,PERIGEE,DECAYED
52537.0,STARLINK-3897,PAYLOAD,2024-02-23 19:33:09,15.08843782,0.0001466,53.216,232.8027,86.6988,273.4172,8.6367e-05,1.087e-05,0.0,0 STARLINK-3897,1 52537U 22051E   24054.81469623  .00001087  00000-0  86367-4 0  9996,2 52537  53.2160 232.8027 0001466  86.6988 273.4172 15.08843782 98994,6917.869,95.437,540.748,538.72,0.0
52537.0,STARLINK-3897,PAYLOAD,2024-02-24 11:27:01,15.08839492,0.0001522,53.2158,229.8291,86.1696,273.947,3.843e-05,3.24e-06,0.0,0 STARLINK-3897,1 52537U 22051E   24055.47710040  .00000324  00000-0  38430-4 0  9992,2 52537  53.2158 229.8291 0001522  86.1696 273.9470 15.08839492 99095,6917.882,95.438,540.8,538.694,0.0
52537.0,STARLINK-3897,PAYLOAD,2024-02-24 17:48:33,15.0884078,0.0001508,53.2157,228.6396,86.2431,273.8733,4.6703e-05,4.55e-06,0.0,0 STARLINK-3897,1 52537U 22051E   24055.74205936  .00000455  00000-0  46703-4 0  9992,2 52537  53.2157 228.6396 0001508  86.2431 273.8733 15.08840780 99205,6917.878,95.438,540.786,538.7,0.0
52537.0,STARLINK-3897,PAYLOAD,2024-02-25 14:28:34,15.08846705,0.0001348,53.215,224.7731,88.7817,271.3329,9.4954e-05,1.224e-05,0.0,0 STARLINK-3897,1 52537U 22051E   24056.60317255  .00001224  00000-0  94954-4 0  9992,2 52537  53.2150 224.7731 0001348  88.7817 271.3329 15.08846705 99268,6917.86,95.437,540.657,538.792,0.0
52537.0,STARLINK-3897,PAYLOAD,2024-02-25 17:39:20,15.08846274,0.0001115,53.2163,224.1774,96.0323,264.0796,0.0001686,2.397e-05,0.0,0 STARLINK-3897,1 52537U 22051E   24056.73565039  .00002397  00000-0  16860-3 0  9992,2 52537  53.2163 224.1774 0001115  96.0323 264.0796 15.08846274 99357,6917.861,95.437,540.498,538.955,0.0
52537.0,STARLINK-3897,PAYLOAD,2024-02-25 20:50:06,15.08855448,0.0001483,53.2163,223.5822,106.6773,253.4382,9.8001e-05,1.273e-05,0.0,0 STARLINK-3897,1 52537U 22051E   24056.86812560  .00001273  00000-0  98001-4 0  9990,2 52537  53.2163 223.5822 0001483 106.6773 253.4382 15.08855448 99300,6917.833,95.437,540.724,538.672,0.0
52537.0,STARLINK-3897,PAYLOAD,2024-02-26 14:19:22,15.08827766,0.0001152,53.216,220.3117,94.6326,265.4798,6.0809e-06,-1.91e-06,0.0,0 STARLINK-3897,1 52537U 22051E   24057.59678897 -.00000191  00000-0  60809-5 0  9999,2 52537  53.2160 220.3117 0001152  94.6326 265.4798 15.08827766 99410,6917.918,95.438,540.58,538.986,0.0
52537.0,STARLINK-3897,PAYLOAD,2024-02-26 17:30:08,15.08831351,0.0001259,53.2163,219.7169,100.0476,260.0659,-7.1132e-07,-2.99e-06,0.0,0 STARLINK-3897,1 52537U 22051E   24057.72926818 -.00000299  00000-0 -71132-6 0  9995,2 52537  53.2163 219.7169 0001259 100.0476 260.0659 15.08831351 99500,6917.907,95.438,540.643,538.901,0.0
52537.0,STARLINK-3897,PAYLOAD,2024-02-27 10:59:22,15.08840381,0.0001239,53.2164,216.4454,102.9203,257.1928,3.2404e-05,2.28e-06,0.0,0 STARLINK-3897,1 52537U 22051E   24058.45790360  .00000228  00000-0  32404-4 0  9994,2 52537  53.2164 216.4454 0001239 102.9203 257.1928 15.08840381 99610,6917.879,95.438,540.601,538.887,0.0
52537.0,STARLINK-3897,PAYLOAD,2024-02-27 14:10:08,15.08842346,0.0001297,53.2161,215.8509,103.5143,256.5993,9.2475e-05,1.184e-05,0.0,0 STARLINK-3897,1 52537U 22051E   24058.59038171  .00001184  00000-0  92475-4 0  9990,2 52537  53.2161 215.8509 0001297 103.5143 256.5993 15.08842346 99567,6917.873,95.437,540.635,538.841,0.0
52537.0,STARLINK-3897,PAYLOAD,2024-02-27 20:31:41,15.08851916,0.0001146,53.2151,214.6593,86.79,273.3223,0.00021695,3.168e-05,0.0,0 STARLINK-3897,1 52537U 22051E   24058.85533762  .00003168  00000-0  21695-3 0  9994,2 52537  53.2151 214.6593 0001146  86.7900 273.3223 15.08851916 99603,6917.844,95.437,540.502,538.916,0.0
52537.0,STARLINK-3897,PAYLOAD,2024-02-28 10:50:10,15.08832712,0.0001099,53.2153,211.9853,100.6384,259.4732,0.00011655,1.567e-05,0.0,0 STARLINK-3897,1 52537U 22051E   24059.45150888  .00001567  00000-0  11655-3 0  9991,2 52537  53.2153 211.9853 0001099 100.6384 259.4732 15.08832712 99763,6917.903,95.438,540.528,539.007,0.0
52537.0,STARLINK-3897,PAYLOAD,2024-02-28 14:00:56,15.08837654,0.000116,53.2154,211.3909,96.8052,263.3072,0.00012312,1.672e-05,0.0,0 STARLINK-3897,1 52537U 22051E   24059.58398665  .00001672  00000-0  12312-3 0  9990,2 52537  53.2154 211.3909 0001160  96.8052 263.3072 15.08837654 99713,6917.888,95.438,540.555,538.95,0.0
52537.0,STARLINK-3897,PAYLOAD,2024-02-28 17:11:42,15.08845266,0.0001182,53.2155,210.7968,103.3453,256.7671,0.00024283,3.579e-05,0.0,0 STARLINK-3897,1 52537U 22051E   24059.71646402  .00003579  00000-0  24283-3 0  9998,2 52537  53.2155 210.7968 0001182 103.3453 256.7671 15.08845266 99804,6917.864,95.437,540.547,538.912,0.0
52537.0,STARLINK-3897,PAYLOAD,2024-02-29 13:51:43,15.08843433,0.000118,53.2153,206.9311,104.9477,255.1646,0.00022462,3.289e-05,0.0,0 STARLINK-3897,1 52537U 22051E   24060.57758387  .00003289  00000-0  22462-3 0  9995,2 52537  53.2153 206.9311 0001180 104.9477 255.1646 15.08843433 99867,6917.87,95.437,540.551,538.919,0.0
52537.0,STARLINK-3897,PAYLOAD,2024-02-29 18:37:52,15.08851768,0.0001185,53.2155,206.0393,105.1617,254.9506,0.00035945,5.439e-05,0.0,0 STARLINK-3897,1 52537U 22051E   24060.77630135  .00005439  00000-0  35945-3 0  9996,2 52537  53.2155 206.0393 0001185 105.1617 254.9506 15.08851768 99967,6917.844,95.437,540.529,538.89,0.0
52537.0,STARLINK-3897,PAYLOAD,2024-03-01 13:42:30,15.0884121,0.0001419,53.2164,202.4733,117.3483,242.7654,8.7713e-05,1.108e-05,0.0,0 STARLINK-3897,1 52537U 22051E   24061.57118322  .00001108  00000-0  87713-4 0  9994,2 52537  53.2164 202.4733 0001419 117.3483 242.7654 15.08841210100010,6917.877,95.437,540.723,538.76,0.0
52537.0,STARLINK-3897,PAYLOAD,2024-03-01 16:53:16,15.0884922,0.0001245,53.2158,201.877,108.6796,251.4331,0.00024213,3.569e-05,0.0,0 STARLINK-3897,1 52537U 22051E   24061.70366151  .00003569  00000-0  24213-3 0  9992,2 52537  53.2158 201.8770 0001245 108.6796 251.4331 15.08849220100102,6917.852,95.437,540.578,538.856,0.0
52537.0,STARLINK-3897,PAYLOAD,2024-03-02 13:33:17,15.08844624,0.0001838,53.2164,198.0083,58.9802,301.137,0.00015749,2.22e-05,0.0,0 STARLINK-3897,1 52537U 22051E   24062.56478623  .00002220  00000-0  15749-3 0  9992,2 52537  53.2164 198.0083 0001838  58.9802 301.1370 15.08844624100161,6917.866,95.437,541.003,538.46,0.0
52537.0,STARLINK-3897,PAYLOAD,2024-03-02 16:44:03,15.08845925,0.0001632,53.2163,197.4131,65.699,294.4172,0.00017992,2.577e-05,0.0,0 STARLINK-3897,1 52537U 22051E   24062.69726506  .00002577  00000-0  17992-3 0  9999,2 52537  53.2163 197.4131 0001632  65.6990 294.4172 15.08845925100251,6917.862,95.437,540.856,538.598,0.0
52537.0,STARLINK-3897,PAYLOAD,2024-03-03 08:37:55,15.08840125,0.000132,53.2156,194.4421,78.1587,281.9553,3.9039e-05,3.33e-06,0.0,0 STARLINK-3897,1 52537U 22051E   24063.35966567  .00000333  00000-0  39039-4 0  9991,2 52537  53.2156 194.4421 0001320  78.1587 281.9553 15.08840125100359,6917.88,95.438,540.658,538.832,0.0
52537.0,STARLINK-3897,PAYLOAD,2024-03-03 14:59:27,15.08844076,0.0001258,53.2156,193.2534,84.0337,276.0798,6.0762e-05,6.79e-06,0.0,0 STARLINK-3897,1 52537U 22051E   24063.62462411  .00000679  00000-0  60762-4 0  9990,2 52537  53.2156 193.2534 0001258  84.0337 276.0798 15.08844076100322,6917.868,95.437,540.603,538.863,0.0
52537.0,STARLINK-3897,PAYLOAD,2024-03-04 13:14:50,15.08850523,0.0001317,53.2159,189.0897,97.5768,262.5374,0.00047797,7.329e-05,0.0,0 STARLINK-3897,1 52537U 22051E   24064.55197792  .00007329  00000-0  47797-3 0  9991,2 52537  53.2159 189.0897 0001317  97.5768 262.5374 15.08850523100530,6917.848,95.437,540.624,538.802,0.0
52537.0,STARLINK-3897,PAYLOAD,2024-03-04 14:50:13,15.08860092,0.0001297,53.2158,188.7914,101.0278,259.086,0.0003261,4.909e-05,0.0,0 STARLINK-3897,1 52537U 22051E   24064.61821352  .00004909  00000-0  32610-3 0  9993,2 52537  53.2158 188.7914 0001297 101.0278 259.0860 15.08860092100475,6917.819,95.436,540.581,538.787,0.0
52537.0,STARLINK-3897,PAYLOAD,2024-03-05 14:41:02,15.08824154,0.0001324,53.2158,184.3286,74.0128,286.101,-0.00028164,-4.765e-05,0.0,0 STARLINK-3897,1 52537U 22051E   24065.61183008 -.00004765  00000-0 -28164-3 0  9994,2 52537  53.2158 184.3286 0001324  74.0128 286.1010 15.08824154100627,6917.929,95.439,540.71,538.878,0.0
52537.0,STARLINK-3897,PAYLOAD,2024-03-05 17:51:48,15.08826898,0.0001262,53.2161,183.7344,95.2533,264.8604,-0.00017221,-3.027e-05,0.0,0 STARLINK-3897,1 52537U 22051E   24065.74431122 -.00003027  00000-0 -17221-3 0  9993,2 52537  53.2161 183.7344 0001262  95.2533 264.8604 15.08826898100714,6917.92,95.438,540.658,538.912,0.0
52537.0,STARLINK-3897,PAYLOAD,2024-03-06 11:21:02,15.08835528,0.0001337,53.2162,180.4659,95.9872,264.1273,-8.1201e-05,-1.58e-05,0.0,0 STARLINK-3897,1 52537U 22051E   24066.47295120 -.00001580  00000-0 -81201-4 0  9992,2 52537  53.2162 180.4659 0001337  95.9872 264.1273 15.08835528100821,6917.894,95.438,540.684,538.834,0.0
52537.0,STARLINK-3897,PAYLOAD,2024-03-06 14:31:49,15.08837044,0.0001381,53.2162,179.8707,98.501,261.6138,0.00015155,2.125e-05,0.0,0 STARLINK-3897,1 52537U 22051E   24066.60543341  .00002125  00000-0  15155-3 0  9996,2 52537  53.2162 179.8707 0001381  98.5010 261.6138 15.08837044100770,6917.889,95.438,540.71,538.799,0.0
52537.0,STARLINK-3897,PAYLOAD,2024-03-07 00:04:08,15.0884911,0.0001382,53.2165,178.087,97.5137,262.6012,0.00074332,0.00011565,0.0,0 STARLINK-3897,1 52537U 22051E   24067.00287211  .00011565  00000-0  74332-3 0  9992,2 52537  53.2165 178.0870 0001382  97.5137 262.6012 15.08849110100909,6917.853,95.437,540.674,538.761,0.0
52537.0,STARLINK-3897,PAYLOAD,2024-03-07 14:22:36,15.08840525,0.0001456,53.2163,175.4116,95.8324,264.2834,0.00024743,3.652e-05,0.0,0 STARLINK-3897,1 52537U 22051E   24067.59903739  .00003652  00000-0  24743-3 0  9995,2 52537  53.2163 175.4116 0001456  95.8324 264.2834 15.08840525100925,6917.879,95.438,540.751,538.737,0.0
